{"spkid": "50144544", "covariance": {"labels": ["e", "q", "tp", "node", "peri", "i"], "data": [["2.084138949932625E-14", "-4.510357247634522E-14", "-6.13537441911585E-12", "2.778005483555608E-12", "-1.246822408366823E-11", "-5.10852433100538E-13"], ["-4.510357247634522E-14", "9.761076654865406E-14", "1.32724120531257E-11", "-6.014434103456352E-12", "2.697819671214861E-11", "1.108100100193874E-12"], ["-6.13537441911585E-12", "1.32724120531257E-11", "1.895894197202477E-9", "-8.148463667230866E-10", "3.784302086761953E-9", "1.171010274862539E-10"], ["2.778005483555608E-12", "-6.014434103456352E-12", "-8.148463667230866E-10", "6.879745379816965E-9", "-8.154073162091065E-9", "-1.002569281809051E-9"], ["-1.246822408366823E-11", "2.697819671214861E-11", "3.784302086761953E-9", "-8.154073162091065E-9", "1.408740425554783E-8", "1.193522127864351E-9"], ["-5.10852433100538E-13", "1.108100100193874E-12", "1.171010274862539E-10", "-1.002569281809051E-9", "1.193522127864351E-9", "1.663979261798052E-10"]], "elements": [{"name": "e", "sigma": 1.44365471977638e-07, "title": "eccentricity", "value": ".5720605394495901", "units": null, "label": "e"}, {"name": "q", "sigma": 3.12427218002296e-07, "title": "perihelion distance", "value": ".9296268929266551", "units": "au", "label": "q"}, {"label": "tp", "name": "tp", "sigma": 4.35418671763451e-05, "value": "2458434.390790800181", "title": "time of perihelion passage", "units": "TDB"}, {"label": "node", "sigma": 8.29442305396642e-05, "name": "om", "units": "deg", "value": "282.025840010606", "title": "longitude of the ascending node"}, {"label": "peri", "name": "w", "sigma": 0.000118690371368312, "title": "argument of perihelion", "value": "116.2510971792188", "units": "deg"}, {"label": "i", "title": "inclination", "value": "3.244428892310686", "units": "deg", "name": "i", "sigma": 1.28995320139843e-05}], "epoch": "2457878.5"}, "elements": [{"value": ".5733682005590378", "title": "eccentricity", "units": null, "sigma": "1.4608E-7", "name": "e", "label": "e"}, {"title": "semi-major axis", "value": "2.173472305417735", "units": "au", "sigma": "6.1693E-9", "name": "a", "label": "a"}, {"label": "q", "sigma": "3.1943E-7", "name": "q", "units": "au", "title": "perihelion distance", "value": ".9272724006954646"}, {"units": "deg", "title": "inclination; angle with respect to x-y ecliptic plane", "value": "3.258388474208223", "sigma": "1.2925E-5", "name": "i", "label": "i"}, {"title": "longitude of the ascending node", "value": "281.7525714625797", "units": "deg", "name": "om", "sigma": "8.192E-5", "label": "node"}, {"label": "peri", "units": "deg", "value": "116.6063524102974", "title": "argument of perihelion", "name": "w", "sigma": ".00011724"}, {"label": "M", "units": "deg", "value": "130.6611438307858", "title": "mean anomaly", "sigma": "1.5897E-5", "name": "ma"}, {"name": "tp", "sigma": "5.0061E-5", "value": "2460775.710720351899", "title": "time of perihelion passage", "units": "TDB", "label": "tp"}, {"value": "1170.387279567693", "title": "sidereal orbital period", "units": "d", "sigma": "4.9831E-6", "name": "per", "label": "period"}, {"sigma": "1.3096E-9", "name": "n", "units": "deg/d", "title": "mean motion", "value": ".3075904927238901", "label": "n"}, {"label": "Q", "sigma": "9.7065E-9", "name": "ad", "units": "au", "value": "3.419672210140004", "title": "aphelion distance"}], "epoch": "2461200.5"}